IRIDIUM 155             
1 43573U 18061E   25225.92030551  .00000022  00000+0  82460-6 0  9998
2 43573  86.4019 185.0662 0001951  91.4700 268.6719 14.34217034369317
IRIDIUM 154             
1 43574U 18061F   25225.90127901  .00000000  00000+0 -70595-5 0  9995
2 43574  86.4023 185.1923 0002177  86.1562 273.9883 14.34217430369368
IRIDIUM 163             
1 43575U 18061G   25225.95201950 -.00000046  00000+0 -23336-4 0  9999
2 43575  86.4020 185.0963 0002021  82.4064 277.7361 14.34217382369340
IRIDIUM 156             
1 43576U 18061H   25225.92664922 -.00000011  00000+0 -11017-4 0  9994
2 43576  86.4020 185.1139 0002047  94.5982 265.5447 14.34217424369334
IRIDIUM 164             
1 43577U 18061J   25225.90762221  .00000033  00000+0  47539-5 0  9995
2 43577  86.4019 185.1569 0002474  88.4138 271.7341 14.34217741369377
IRIDIUM 159             
1 43578U 18061K   25225.94567691  .00000123  00000+0  36888-4 0  9998
2 43578  86.4016 185.0843 0002466  81.7241 278.4234 14.34217408369343
IRIDIUM 180             
1 43922U 19002A   25225.80563625  .00000196  00000+0  62812-4 0  9991
2 43922  86.3984 122.1226 0002133  81.4306 278.7132 14.34217496344931
IRIDIUM 176             
1 43923U 19002B   25225.74105417  .00001383  00000+0  21538-3 0  9994
2 43923  86.6109 122.1369 0001762  93.3911 266.7508 14.72246801354011
IRIDIUM 168             
1 43924U 19002C   25225.72952459 -.00000094  00000+0 -40642-4 0  9997
2 43924  86.3986 122.2225 0002042  83.0114 277.1314 14.34216825344906
IRIDIUM 173             
1 43925U 19002D   25225.78660737  .00000304  00000+0  10165-3 0  9997
2 43925  86.3982 122.1003 0001990  83.1724 276.9698 14.34216986344893
IRIDIUM 169             
1 43926U 19002E   25225.88529039  .00000407  00000+0  12650-3 0  9993
2 43926  86.4286 153.6556 0001067 107.8631 252.2684 14.38606425346046
IRIDIUM 172             
1 43927U 19002F   25225.78026231  .00000266  00000+0  87881-4 0  9991
2 43927  86.3987 122.1108 0002137  75.8979 284.2454 14.34216422344909
IRIDIUM 175             
1 43928U 19002G   25225.94001352  .00000781  00000+0  11983-3 0  9998
2 43928  86.1454  71.2647 0002605 106.7734 253.3768 14.72247384354035
IRIDIUM 171             
1 43929U 19002H   25225.97054301  .00000078  00000+0  20724-4 0  9997
2 43929  86.3992 122.3028 0002355  91.0792 269.0674 14.34217727344921
IRIDIUM 170             
1 43930U 19002J   25225.95113405  .00000576  00000+0  87365-4 0  9995
2 43930  86.6106 122.0533 0002360  88.9852 271.1635 14.72252917354057
IRIDIUM 167             
1 43931U 19002K   25225.96420008  .00000015  00000+0 -16418-5 0  9998
2 43931  86.3984 122.0527 0002076  96.6182 263.5250 14.34217599344926
IRIDIUM 181             
1 56726U 23068S   25225.90792857  .00000338  00000+0  94566-4 0  9995
2 56726  86.4557 185.1416 0002884  90.2203 269.9329 14.43311742118119
IRIDIUM 177             
1 56727U 23068T   25225.93807898  .00001077  00000+0  13829-3 0  9994
2 56727  86.1972 114.7262 0002431  93.2336 266.9163 14.80225732120911
IRIDIUM 174             
1 56728U 23068U   25225.73487537  .00001016  00000+0  15724-3 0  9996
2 56728  86.6115 122.2600 0001979  77.2916 282.8523 14.72246768120783
IRIDIUM 178             
1 56729U 23068V   25225.85957099  .00001367  00000+0  17641-3 0  9994
2 56729  86.6603 153.7799 0002393  82.9111 277.2382 14.80240365120906
IRIDIUM 179             
1 56730U 23068W   25225.85419906  .00001170  00000+0  15053-3 0  9993
2 56730  86.6848 161.8250 0002357  90.7251 269.4241 14.80223144120906
